{
  "norad_id": 61661,
  "name": "STARLINK-32238",
  "history": [
    {
      "epoch": "2026-03-28T04:07:20.737920Z",
      "apogee_km": 476.4521068151489,
      "perigee_km": 473.97928009629595,
      "latitude_deg": 2.0530628248424846e-05,
      "longitude_deg": 117.91736958275278,
      "height_km": 476.8015482847027,
      "semi_major_axis_km": 6853.352693455722,
      "eccentricity": 0.00018041,
      "inclination_deg": 53.1633,
      "raan_deg": 5.3498,
      "arg_perigee_deg": 123.7971,
      "mean_anomaly_deg": 236.3202,
      "mean_motion_rev_day": 15.30199791
    },
    {
      "epoch": "2026-03-30T03:08:56.904288Z",
      "apogee_km": 476.0562667277218,
      "perigee_km": 474.4141987407593,
      "latitude_deg": -4.9059509739757496e-05,
      "longitude_deg": 121.48750640902294,
      "height_km": 476.3182582917034,
      "semi_major_axis_km": 6853.37223273424,
      "eccentricity": 0.0001198,
      "inclination_deg": 53.165,
      "raan_deg": 356.252,
      "arg_perigee_deg": 102.9699,
      "mean_anomaly_deg": 257.1435,
      "mean_motion_rev_day": 15.30193247
    },
    {
      "epoch": "2026-03-30T10:59:13.251264Z",
      "apogee_km": 476.01061100184506,
      "perigee_km": 474.48710332579776,
      "latitude_deg": 1.8582034864000772e-06,
      "longitude_deg": 2.0814422615702926,
      "height_km": 476.1868797456577,
      "semi_major_axis_km": 6853.385857163821,
      "eccentricity": 0.00011115,
      "inclination_deg": 53.164,
      "raan_deg": 354.7359,
      "arg_perigee_deg": 92.9577,
      "mean_anomaly_deg": 267.1551,
      "mean_motion_rev_day": 15.30188684
    },
    {
      "epoch": "2026-03-30T21:57:35.548128Z",
      "apogee_km": 475.80459449703903,
      "perigee_km": 474.5216567135258,
      "latitude_deg": 3.125873855803466e-05,
      "longitude_deg": -165.0841782642589,
      "height_km": 475.81401474856733,
      "semi_major_axis_km": 6853.300125605282,
      "eccentricity": 9.36e-05,
      "inclination_deg": 53.1621,
      "raan_deg": 352.6138,
      "arg_perigee_deg": 67.2595,
      "mean_anomaly_deg": 292.8505,
      "mean_motion_rev_day": 15.30217397
    },
    {
      "epoch": "2026-03-31T21:28:23.694816Z",
      "apogee_km": 475.8544498570882,
      "perigee_km": 474.65784741333755,
      "latitude_deg": 3.672788519375862e-05,
      "longitude_deg": -163.3038439964293,
      "height_km": 476.25009368919194,
      "semi_major_axis_km": 6853.393148635213,
      "eccentricity": 8.73e-05,
      "inclination_deg": 53.1628,
      "raan_deg": 348.0604,
      "arg_perigee_deg": 99.1395,
      "mean_anomaly_deg": 260.9705,
      "mean_motion_rev_day": 15.30186242
    },
    {
      "epoch": "2026-04-01T20:59:11.410368Z",
      "apogee_km": 475.93959509734304,
      "perigee_km": 474.53602393635356,
      "latitude_deg": 5.457031308857791e-06,
      "longitude_deg": -161.51783590771316,
      "height_km": 476.1711386372569,
      "semi_major_axis_km": 6853.374809516848,
      "eccentricity": 0.0001024,
      "inclination_deg": 53.1607,
      "raan_deg": 343.5109,
      "arg_perigee_deg": 92.8463,
      "mean_anomaly_deg": 267.2655,
      "mean_motion_rev_day": 15.30192384
    },
    {
      "epoch": "2026-04-02T09:31:36.236352Z",
      "apogee_km": 476.018535091328,
      "perigee_km": 474.3863437704331,
      "latitude_deg": -1.5457370039692974e-05,
      "longitude_deg": 7.435698419789538,
      "height_km": 476.0955156163919,
      "semi_major_axis_km": 6853.339439430881,
      "eccentricity": 0.00011908,
      "inclination_deg": 53.1614,
      "raan_deg": 341.0829,
      "arg_perigee_deg": 89.6306,
      "mean_anomaly_deg": 270.4831,
      "mean_motion_rev_day": 15.3020423
    },
    {
      "epoch": "2026-04-02T22:04:01.864992Z",
      "apogee_km": 476.19596679508504,
      "perigee_km": 474.2241217835008,
      "latitude_deg": -4.6993936790036354e-05,
      "longitude_deg": 176.38767120954603,
      "height_km": 476.10445507059376,
      "semi_major_axis_km": 6853.347044289292,
      "eccentricity": 0.00014386,
      "inclination_deg": 53.161,
      "raan_deg": 338.6567,
      "arg_perigee_deg": 89.7939,
      "mean_anomaly_deg": 270.3226,
      "mean_motion_rev_day": 15.30201683
    },
    {
      "epoch": "2026-04-03T02:46:11.538912Z",
      "apogee_km": 476.1383587004202,
      "perigee_km": 474.29974033945564,
      "latitude_deg": 6.188106288919075e-05,
      "longitude_deg": 104.7419118700939,
      "height_km": 476.07017017035537,
      "semi_major_axis_km": 6853.356049519938,
      "eccentricity": 0.00013414,
      "inclination_deg": 53.1609,
      "raan_deg": 337.7443,
      "arg_perigee_deg": 87.0728,
      "mean_anomaly_deg": 273.0427,
      "mean_motion_rev_day": 15.30198667
    },
    {
      "epoch": "2026-04-04T19:31:33.941856Z",
      "apogee_km": 475.94738424898605,
      "perigee_km": 474.4369105049045,
      "latitude_deg": -4.7926153157939376e-05,
      "longitude_deg": -156.16331498454252,
      "height_km": 475.9175362859903,
      "semi_major_axis_km": 6853.329147376945,
      "eccentricity": 0.0001102,
      "inclination_deg": 53.1592,
      "raan_deg": 329.8563,
      "arg_perigee_deg": 76.7671,
      "mean_anomaly_deg": 283.3452,
      "mean_motion_rev_day": 15.30207677
    }
  ]
}